{
  "type": "FeatureCollection",
  "features": [
    {
      "type": "Feature",
      "properties": {
        "norad_id": 28899,
        "name": "INMARSAT 4-F2 (SOUTHPAN/PRN 122)",
        "group": "gnss",
        "lat": 3.8887934539401225,
        "lon": 96.2995129554984,
        "alt_km": 35795.88057848939,
        "timestamp": "2025-12-22T14:45:57.643968+00:00",
        "meta_object_name": "INMARSAT 4-F2 (SOUTHPAN/PRN 122)",
        "meta_object_id": "2005-044A",
        "meta_epoch": "2025-12-21T22:26:26.011392",
        "meta_mean_motion": 1.00270836,
        "meta_eccentricity": 0.0002358,
        "meta_inclination": 4.8627,
        "meta_ra_of_asc_node": 43.7065,
        "meta_arg_of_pericenter": 228.5846,
        "meta_mean_anomaly": 298.5669,
        "meta_ephemeris_type": 0,
        "meta_classification_type": "U",
        "meta_norad_cat_id": 28899,
        "meta_element_set_no": 999,
        "meta_rev_at_epoch": 7374,
        "meta_bstar": 0,
        "meta_mean_motion_dot": -2.41e-06,
        "meta_mean_motion_ddot": 0,
        "tle_line1": "1 28899U 05044A   25355.93502328 -.00000241  00000+0  00000+0 0  9997",
        "tle_line2": "2 28899   4.8627  43.7065 0002358 228.5846 298.5669  1.00270836 73746"
      },
      "geometry": {
        "type": "Point",
        "coordinates": [
          96.2995129554984,
          3.8887934539401225
        ]
      }
    },
    {
      "type": "Feature",
      "properties": {
        "norad_id": 29486,
        "name": "GPS BIIRM-2 (PRN 31)",
        "group": "gnss",
        "lat": 54.40089477092405,
        "lon": -119.7448658358099,
        "alt_km": 19937.312436603366,
        "timestamp": "2025-12-22T14:45:57.643982+00:00",
        "meta_object_name": "GPS BIIRM-2 (PRN 31)",
        "meta_object_id": "2006-042A",
        "meta_epoch": "2025-12-21T12:25:39.335232",
        "meta_mean_motion": 2.00553827,
        "meta_eccentricity": 0.01073004,
        "meta_inclination": 54.6951,
        "meta_ra_of_asc_node": 158.3926,
        "meta_arg_of_pericenter": 52.1628,
        "meta_mean_anomaly": 320.0686,
        "meta_ephemeris_type": 0,
        "meta_classification_type": "U",
        "meta_norad_cat_id": 29486,
        "meta_element_set_no": 999,
        "meta_rev_at_epoch": 14083,
        "meta_bstar": 0,
        "meta_mean_motion_dot": 7.1e-07,
        "meta_mean_motion_ddot": 0,
        "tle_line1": "1 29486U 06042A   25355.51781638  .00000071  00000+0  00000+0 0  9996",
        "tle_line2": "2 29486  54.6951 158.3926 0107300  52.1628 320.0686  2.00553827140833"
      },
      "geometry": {
        "type": "Point",
        "coordinates": [
          -119.7448658358099,
          54.40089477092405
        ]
      }
    },
    {
      "type": "Feature",
      "properties": {
        "norad_id": 29601,
        "name": "GPS BIIRM-3 (PRN 12)",
        "group": "gnss",
        "lat": 28.953493871358017,
        "lon": 18.1886961976164,
        "alt_km": 20046.37689682478,
        "timestamp": "2025-12-22T14:45:57.643995+00:00",
        "meta_object_name": "GPS BIIRM-3 (PRN 12)",
        "meta_object_id": "2006-052A",
        "meta_epoch": "2025-12-21T22:05:09.010752",
        "meta_mean_motion": 2.00574213,
        "meta_eccentricity": 0.00880316,
        "meta_inclination": 54.9687,
        "meta_ra_of_asc_node": 221.0338,
        "meta_arg_of_pericenter": 87.5441,
        "meta_mean_anomaly": 273.5576,
        "meta_ephemeris_type": 0,
        "meta_classification_type": "U",
        "meta_norad_cat_id": 29601,
        "meta_element_set_no": 999,
        "meta_rev_at_epoch": 13985,
        "meta_bstar": 0,
        "meta_mean_motion_dot": 7e-07,
        "meta_mean_motion_ddot": 0,
        "tle_line1": "1 29601U 06052A   25355.92024318  .00000070  00000+0  00000+0 0  9995",
        "tle_line2": "2 29601  54.9687 221.0338 0088031  87.5441 273.5576  2.00574213139852"
      },
      "geometry": {
        "type": "Point",
        "coordinates": [
          18.1886961976164,
          28.953493871358017
        ]
      }
    },
    {
      "type": "Feature",
      "properties": {
        "norad_id": 32260,
        "name": "GPS BIIRM-4 (PRN 15)",
        "group": "gnss",
        "lat": -52.278418173522056,
        "lon": 17.336328787025685,
        "alt_km": 20603.753999602228,
        "timestamp": "2025-12-22T14:45:57.644008+00:00",
        "meta_object_name": "GPS BIIRM-4 (PRN 15)",
        "meta_object_id": "2007-047A",
        "meta_epoch": "2025-12-22T05:26:06.407520",
        "meta_mean_motion": 2.00564155,
        "meta_eccentricity": 0.0163987,
        "meta_inclination": 53.9614,
        "meta_ra_of_asc_node": 87.3666,
        "meta_arg_of_pericenter": 85.3577,
        "meta_mean_anomaly": 276.5274,
        "meta_ephemeris_type": 0,
        "meta_classification_type": "U",
        "meta_norad_cat_id": 32260,
        "meta_element_set_no": 999,
        "meta_rev_at_epoch": 13326,
        "meta_bstar": 0,
        "meta_mean_motion_dot": -1.3e-07,
        "meta_mean_motion_ddot": 0,
        "tle_line1": "1 32260U 07047A   25356.22646305 -.00000013  00000+0  00000+0 0  9993",
        "tle_line2": "2 32260  53.9614  87.3666 0163987  85.3577 276.5274  2.00564155133264"
      },
      "geometry": {
        "type": "Point",
        "coordinates": [
          17.336328787025685,
          -52.278418173522056
        ]
      }
    },
    {
      "type": "Feature",
      "properties": {
        "norad_id": 32275,
        "name": "COSMOS 2433 (720)",
        "group": "gnss",
        "lat": 60.128006783386446,
        "lon": 89.95381797877519,
        "alt_km": 19134.340333634704,
        "timestamp": "2025-12-22T14:45:57.644020+00:00",
        "meta_object_name": "COSMOS 2433 (720)",
        "meta_object_id": "2007-052A",
        "meta_epoch": "2025-12-22T00:07:36.568704",
        "meta_mean_motion": 2.13104226,
        "meta_eccentricity": 0.00051704,
        "meta_inclination": 65.6781,
        "meta_ra_of_asc_node": 321.8942,
        "meta_arg_of_pericenter": 255.846,
        "meta_mean_anomaly": 104.0915,
        "meta_ephemeris_type": 0,
        "meta_classification_type": "U",
        "meta_norad_cat_id": 32275,
        "meta_element_set_no": 999,
        "meta_rev_at_epoch": 14128,
        "meta_bstar": 0,
        "meta_mean_motion_dot": -4.2e-07,
        "meta_mean_motion_ddot": 0,
        "tle_line1": "1 32275U 07052A   25356.00528436 -.00000042  00000+0  00000+0 0  9997",
        "tle_line2": "2 32275  65.6781 321.8942 0005170 255.8460 104.0915  2.13104226141283"
      },
      "geometry": {
        "type": "Point",
        "coordinates": [
          89.95381797877519,
          60.128006783386446
        ]
      }
    },
    {
      "type": "Feature",
      "properties": {
        "norad_id": 32276,
        "name": "COSMOS 2432 (719)",
        "group": "gnss",
        "lat": 46.27700537141909,
        "lon": -9.83657141401339,
        "alt_km": 19128.572107232274,
        "timestamp": "2025-12-22T14:45:57.644033+00:00",
        "meta_object_name": "COSMOS 2432 (719)",
        "meta_object_id": "2007-052B",
        "meta_epoch": "2025-12-22T03:59:43.764000",
        "meta_mean_motion": 2.13103428,
        "meta_eccentricity": 0.00113428,
        "meta_inclination": 65.6941,
        "meta_ra_of_asc_node": 322.0132,
        "meta_arg_of_pericenter": 314.3945,
        "meta_mean_anomaly": 113.6439,
        "meta_ephemeris_type": 0,
        "meta_classification_type": "U",
        "meta_norad_cat_id": 32276,
        "meta_element_set_no": 999,
        "meta_rev_at_epoch": 14131,
        "meta_bstar": 0,
        "meta_mean_motion_dot": -4.2e-07,
        "meta_mean_motion_ddot": 0,
        "tle_line1": "1 32276U 07052B   25356.16647875 -.00000042  00000+0  00000+0 0  9994",
        "tle_line2": "2 32276  65.6941 322.0132 0011342 314.3945 113.6439  2.13103428141317"
      },
      "geometry": {
        "type": "Point",
        "coordinates": [
          -9.83657141401339,
          46.27700537141909
        ]
      }
    },
    {
      "type": "Feature",
      "properties": {
        "norad_id": 32384,
        "name": "GPS BIIRM-5 (PRN 29)",
        "group": "gnss",
        "lat": 40.241736010063086,
        "lon": -42.72435710050741,
        "alt_km": 20205.78947790686,
        "timestamp": "2025-12-22T14:45:57.644045+00:00",
        "meta_object_name": "GPS BIIRM-5 (PRN 29)",
        "meta_object_id": "2007-062A",
        "meta_epoch": "2025-12-19T04:08:10.010976",
        "meta_mean_motion": 2.00577702,
        "meta_eccentricity": 0.00322663,
        "meta_inclination": 55.1765,
        "meta_ra_of_asc_node": 281.388,
        "meta_arg_of_pericenter": 162.2119,
        "meta_mean_anomaly": 283.9132,
        "meta_ephemeris_type": 0,
        "meta_classification_type": "U",
        "meta_norad_cat_id": 32384,
        "meta_element_set_no": 999,
        "meta_rev_at_epoch": 13190,
        "meta_bstar": 0,
        "meta_mean_motion_dot": -3.8e-07,
        "meta_mean_motion_ddot": 0,
        "tle_line1": "1 32384U 07062A   25353.17233809 -.00000038  00000+0  00000+0 0  9996",
        "tle_line2": "2 32384  55.1765 281.3880 0032266 162.2119 283.9132  2.00577702131904"
      },
      "geometry": {
        "type": "Point",
        "coordinates": [
          -42.72435710050741,
          40.241736010063086
        ]
      }
    }
  ]
}